ORBCOMM FM33 [-]        
1 25983U 99065D   23259.72167865  .00001324  00000+0  49263-3 0  9995
2 25983  45.0290 150.6137 0008648  82.2195  12.8358 14.36714830244087
ORBCOMM FM36 [-]        
1 25984U 99065E   23259.25205086  .00001411  00000+0  54430-3 0  9991
2 25984  45.0394 234.2496 0005372 316.8519  43.1907 14.34599013242422
ORBCOMM FM35 [+]        
1 25985U 99065F   23260.00292281  .00001277  00000+0  50043-3 0  9996
2 25985  45.0393 232.7333 0001755  40.9495 319.1484 14.34311491243120
ORBCOMM FM34 [-]        
1 25986U 99065G   23260.03561184  .00001318  00000+0  51537-3 0  9996
2 25986  45.0388 233.0428 0004249 353.9205   6.1590 14.34254245243091
ORBCOMM FM38 [-]        
1 33060U 08031A   23259.54593703  .00002099  00000+0  33118-3 0  9999
2 33060  48.4406 109.9035 0005788 183.2160 176.8717 14.75988439820090
ORBCOMM FM41 [-]        
1 33061U 08031B   23259.69199866  .00001948  00000+0  31114-3 0  9994
2 33061  48.4440 115.3095 0004880 170.9817 219.0918 14.75760799820078
ORBCOMM FM29 [-]        
1 33062U 08031C   23259.07876693  .00002133  00000+0  33880-3 0  9996
2 33062  48.4396 126.1729 0006675 164.9761 350.6427 14.75631539819454
ORBCOMM FM39 [-]        
1 33063U 08031D   23259.14047442  .00002090  00000+0  33885-3 0  9994
2 33063  48.4409 144.7749 0007421 141.4217 218.7227 14.74807602819181
