<?xml version="1.0" encoding="UTF-8"?>
<ndm xmlns:xsi="http://www.w3.org/2001/XMLSchema-instance" xsi:noNamespaceSchemaLocation="https://sanaregistry.org/r/ndmxml_unqualified/ndmxml-2.0.0-master-2.0.xsd">
<omm id="CCSDS_OMM_VERS" version="2.0">
<header><CREATION_DATE/><ORIGINATOR/></header><body><segment><metadata><OBJECT_NAME>ORBCOMM FM33 [-]</OBJECT_NAME><OBJECT_ID>1999-065D</OBJECT_ID><CENTER_NAME>EARTH</CENTER_NAME><REF_FRAME>TEME</REF_FRAME><TIME_SYSTEM>UTC</TIME_SYSTEM><MEAN_ELEMENT_THEORY>SGP4</MEAN_ELEMENT_THEORY></metadata><data><meanElements><EPOCH>2023-09-16T17:19:13.035360</EPOCH><MEAN_MOTION>14.36714830</MEAN_MOTION><ECCENTRICITY>.0008648</ECCENTRICITY><INCLINATION>45.0290</INCLINATION><RA_OF_ASC_NODE>150.6137</RA_OF_ASC_NODE><ARG_OF_PERICENTER>82.2195</ARG_OF_PERICENTER><MEAN_ANOMALY>12.8358</MEAN_ANOMALY></meanElements><tleParameters><EPHEMERIS_TYPE>0</EPHEMERIS_TYPE><CLASSIFICATION_TYPE>U</CLASSIFICATION_TYPE><NORAD_CAT_ID>25983</NORAD_CAT_ID><ELEMENT_SET_NO>999</ELEMENT_SET_NO><REV_AT_EPOCH>24408</REV_AT_EPOCH><BSTAR>.49263E-3</BSTAR><MEAN_MOTION_DOT>.1324E-4</MEAN_MOTION_DOT><MEAN_MOTION_DDOT>0</MEAN_MOTION_DDOT></tleParameters></data></segment></body></omm>
<omm id="CCSDS_OMM_VERS" version="2.0">
<header><CREATION_DATE/><ORIGINATOR/></header><body><segment><metadata><OBJECT_NAME>ORBCOMM FM36 [-]</OBJECT_NAME><OBJECT_ID>1999-065E</OBJECT_ID><CENTER_NAME>EARTH</CENTER_NAME><REF_FRAME>TEME</REF_FRAME><TIME_SYSTEM>UTC</TIME_SYSTEM><MEAN_ELEMENT_THEORY>SGP4</MEAN_ELEMENT_THEORY></metadata><data><meanElements><EPOCH>2023-09-16T06:02:57.194304</EPOCH><MEAN_MOTION>14.34599013</MEAN_MOTION><ECCENTRICITY>.0005372</ECCENTRICITY><INCLINATION>45.0394</INCLINATION><RA_OF_ASC_NODE>234.2496</RA_OF_ASC_NODE><ARG_OF_PERICENTER>316.8519</ARG_OF_PERICENTER><MEAN_ANOMALY>43.1907</MEAN_ANOMALY></meanElements><tleParameters><EPHEMERIS_TYPE>0</EPHEMERIS_TYPE><CLASSIFICATION_TYPE>U</CLASSIFICATION_TYPE><NORAD_CAT_ID>25984</NORAD_CAT_ID><ELEMENT_SET_NO>999</ELEMENT_SET_NO><REV_AT_EPOCH>24242</REV_AT_EPOCH><BSTAR>.5443E-3</BSTAR><MEAN_MOTION_DOT>.1411E-4</MEAN_MOTION_DOT><MEAN_MOTION_DDOT>0</MEAN_MOTION_DDOT></tleParameters></data></segment></body></omm>
<omm id="CCSDS_OMM_VERS" version="2.0">
<header><CREATION_DATE/><ORIGINATOR/></header><body><segment><metadata><OBJECT_NAME>ORBCOMM FM35 [+]</OBJECT_NAME><OBJECT_ID>1999-065F</OBJECT_ID><CENTER_NAME>EARTH</CENTER_NAME><REF_FRAME>TEME</REF_FRAME><TIME_SYSTEM>UTC</TIME_SYSTEM><MEAN_ELEMENT_THEORY>SGP4</MEAN_ELEMENT_THEORY></metadata><data><meanElements><EPOCH>2023-09-17T00:04:12.530784</EPOCH><MEAN_MOTION>14.34311491</MEAN_MOTION><ECCENTRICITY>.0001755</ECCENTRICITY><INCLINATION>45.0393</INCLINATION><RA_OF_ASC_NODE>232.7333</RA_OF_ASC_NODE><ARG_OF_PERICENTER>40.9495</ARG_OF_PERICENTER><MEAN_ANOMALY>319.1484</MEAN_ANOMALY></meanElements><tleParameters><EPHEMERIS_TYPE>0</EPHEMERIS_TYPE><CLASSIFICATION_TYPE>U</CLASSIFICATION_TYPE><NORAD_CAT_ID>25985</NORAD_CAT_ID><ELEMENT_SET_NO>999</ELEMENT_SET_NO><REV_AT_EPOCH>24312</REV_AT_EPOCH><BSTAR>.50043E-3</BSTAR><MEAN_MOTION_DOT>.1277E-4</MEAN_MOTION_DOT><MEAN_MOTION_DDOT>0</MEAN_MOTION_DDOT></tleParameters></data></segment></body></omm>
<omm id="CCSDS_OMM_VERS" version="2.0">
<header><CREATION_DATE/><ORIGINATOR/></header><body><segment><metadata><OBJECT_NAME>ORBCOMM FM34 [-]</OBJECT_NAME><OBJECT_ID>1999-065G</OBJECT_ID><CENTER_NAME>EARTH</CENTER_NAME><REF_FRAME>TEME</REF_FRAME><TIME_SYSTEM>UTC</TIME_SYSTEM><MEAN_ELEMENT_THEORY>SGP4</MEAN_ELEMENT_THEORY></metadata><data><meanElements><EPOCH>2023-09-17T00:51:16.862976</EPOCH><MEAN_MOTION>14.34254245</MEAN_MOTION><ECCENTRICITY>.0004249</ECCENTRICITY><INCLINATION>45.0388</INCLINATION><RA_OF_ASC_NODE>233.0428</RA_OF_ASC_NODE><ARG_OF_PERICENTER>353.9205</ARG_OF_PERICENTER><MEAN_ANOMALY>6.1590</MEAN_ANOMALY></meanElements><tleParameters><EPHEMERIS_TYPE>0</EPHEMERIS_TYPE><CLASSIFICATION_TYPE>U</CLASSIFICATION_TYPE><NORAD_CAT_ID>25986</NORAD_CAT_ID><ELEMENT_SET_NO>999</ELEMENT_SET_NO><REV_AT_EPOCH>24309</REV_AT_EPOCH><BSTAR>.51537E-3</BSTAR><MEAN_MOTION_DOT>.1318E-4</MEAN_MOTION_DOT><MEAN_MOTION_DDOT>0</MEAN_MOTION_DDOT></tleParameters></data></segment></body></omm>
<omm id="CCSDS_OMM_VERS" version="2.0">
<header><CREATION_DATE/><ORIGINATOR/></header><body><segment><metadata><OBJECT_NAME>ORBCOMM FM38 [-]</OBJECT_NAME><OBJECT_ID>2008-031A</OBJECT_ID><CENTER_NAME>EARTH</CENTER_NAME><REF_FRAME>TEME</REF_FRAME><TIME_SYSTEM>UTC</TIME_SYSTEM><MEAN_ELEMENT_THEORY>SGP4</MEAN_ELEMENT_THEORY></metadata><data><meanElements><EPOCH>2023-09-16T13:06:08.959392</EPOCH><MEAN_MOTION>14.75988439</MEAN_MOTION><ECCENTRICITY>.0005788</ECCENTRICITY><INCLINATION>48.4406</INCLINATION><RA_OF_ASC_NODE>109.9035</RA_OF_ASC_NODE><ARG_OF_PERICENTER>183.2160</ARG_OF_PERICENTER><MEAN_ANOMALY>176.8717</MEAN_ANOMALY></meanElements><tleParameters><EPHEMERIS_TYPE>0</EPHEMERIS_TYPE><CLASSIFICATION_TYPE>U</CLASSIFICATION_TYPE><NORAD_CAT_ID>33060</NORAD_CAT_ID><ELEMENT_SET_NO>999</ELEMENT_SET_NO><REV_AT_EPOCH>82009</REV_AT_EPOCH><BSTAR>.33118E-3</BSTAR><MEAN_MOTION_DOT>.2099E-4</MEAN_MOTION_DOT><MEAN_MOTION_DDOT>0</MEAN_MOTION_DDOT></tleParameters></data></segment></body></omm>
<omm id="CCSDS_OMM_VERS" version="2.0">
<header><CREATION_DATE/><ORIGINATOR/></header><body><segment><metadata><OBJECT_NAME>ORBCOMM FM41 [-]</OBJECT_NAME><OBJECT_ID>2008-031B</OBJECT_ID><CENTER_NAME>EARTH</CENTER_NAME><REF_FRAME>TEME</REF_FRAME><TIME_SYSTEM>UTC</TIME_SYSTEM><MEAN_ELEMENT_THEORY>SGP4</MEAN_ELEMENT_THEORY></metadata><data><meanElements><EPOCH>2023-09-16T16:36:28.684224</EPOCH><MEAN_MOTION>14.75760799</MEAN_MOTION><ECCENTRICITY>.000488</ECCENTRICITY><INCLINATION>48.4440</INCLINATION><RA_OF_ASC_NODE>115.3095</RA_OF_ASC_NODE><ARG_OF_PERICENTER>170.9817</ARG_OF_PERICENTER><MEAN_ANOMALY>219.0918</MEAN_ANOMALY></meanElements><tleParameters><EPHEMERIS_TYPE>0</EPHEMERIS_TYPE><CLASSIFICATION_TYPE>U</CLASSIFICATION_TYPE><NORAD_CAT_ID>33061</NORAD_CAT_ID><ELEMENT_SET_NO>999</ELEMENT_SET_NO><REV_AT_EPOCH>82007</REV_AT_EPOCH><BSTAR>.31114E-3</BSTAR><MEAN_MOTION_DOT>.1948E-4</MEAN_MOTION_DOT><MEAN_MOTION_DDOT>0</MEAN_MOTION_DDOT></tleParameters></data></segment></body></omm>
<omm id="CCSDS_OMM_VERS" version="2.0">
<header><CREATION_DATE/><ORIGINATOR/></header><body><segment><metadata><OBJECT_NAME>ORBCOMM FM29 [-]</OBJECT_NAME><OBJECT_ID>2008-031C</OBJECT_ID><CENTER_NAME>EARTH</CENTER_NAME><REF_FRAME>TEME</REF_FRAME><TIME_SYSTEM>UTC</TIME_SYSTEM><MEAN_ELEMENT_THEORY>SGP4</MEAN_ELEMENT_THEORY></metadata><data><meanElements><EPOCH>2023-09-16T01:53:25.462752</EPOCH><MEAN_MOTION>14.75631539</MEAN_MOTION><ECCENTRICITY>.0006675</ECCENTRICITY><INCLINATION>48.4396</INCLINATION><RA_OF_ASC_NODE>126.1729</RA_OF_ASC_NODE><ARG_OF_PERICENTER>164.9761</ARG_OF_PERICENTER><MEAN_ANOMALY>350.6427</MEAN_ANOMALY></meanElements><tleParameters><EPHEMERIS_TYPE>0</EPHEMERIS_TYPE><CLASSIFICATION_TYPE>U</CLASSIFICATION_TYPE><NORAD_CAT_ID>33062</NORAD_CAT_ID><ELEMENT_SET_NO>999</ELEMENT_SET_NO><REV_AT_EPOCH>81945</REV_AT_EPOCH><BSTAR>.3388E-3</BSTAR><MEAN_MOTION_DOT>.2133E-4</MEAN_MOTION_DOT><MEAN_MOTION_DDOT>0</MEAN_MOTION_DDOT></tleParameters></data></segment></body></omm>
<omm id="CCSDS_OMM_VERS" version="2.0">
<header><CREATION_DATE/><ORIGINATOR/></header><body><segment><metadata><OBJECT_NAME>ORBCOMM FM39 [-]</OBJECT_NAME><OBJECT_ID>2008-031D</OBJECT_ID><CENTER_NAME>EARTH</CENTER_NAME><REF_FRAME>TEME</REF_FRAME><TIME_SYSTEM>UTC</TIME_SYSTEM><MEAN_ELEMENT_THEORY>SGP4</MEAN_ELEMENT_THEORY></metadata><data><meanElements><EPOCH>2023-09-16T03:22:16.989888</EPOCH><MEAN_MOTION>14.74807602</MEAN_MOTION><ECCENTRICITY>.0007421</ECCENTRICITY><INCLINATION>48.4409</INCLINATION><RA_OF_ASC_NODE>144.7749</RA_OF_ASC_NODE><ARG_OF_PERICENTER>141.4217</ARG_OF_PERICENTER><MEAN_ANOMALY>218.7227</MEAN_ANOMALY></meanElements><tleParameters><EPHEMERIS_TYPE>0</EPHEMERIS_TYPE><CLASSIFICATION_TYPE>U</CLASSIFICATION_TYPE><NORAD_CAT_ID>33063</NORAD_CAT_ID><ELEMENT_SET_NO>999</ELEMENT_SET_NO><REV_AT_EPOCH>81918</REV_AT_EPOCH><BSTAR>.33885E-3</BSTAR><MEAN_MOTION_DOT>.209E-4</MEAN_MOTION_DOT><MEAN_MOTION_DDOT>0</MEAN_MOTION_DDOT></tleParameters></data></segment></body></omm>

</ndm>
